APRIZESAT 2             
1 28366U 04025A   23010.17654465  .00000208  00000+0  78942-4 0  9993
2 28366  98.1353 233.4283 0108619  73.3762 287.9319 14.36894463971503
SAUDICOMSAT 1           
1 28369U 04025D   23010.18076868  .00000619  00000+0  16071-3 0  9992
2 28369  98.4707 338.4499 0032139 261.8678  97.8871 14.52972719981927
SAUDICOMSAT 2           
1 28370U 04025E   23009.63362390  .00000486  00000+0  14100-3 0  9993
2 28370  98.5625 337.4324 0058686  97.1377 263.6492 14.47847764978468
APRIZESAT 1             
1 28372U 04025G   23009.67371622  .00000534  00000+0  14848-3 0  9990
2 28372  98.5236 337.4771 0046329   9.7552 350.4531 14.49931482979989
NANOSAT-1               
1 28493U 04049B   23010.26165630  .00001358  00000+0  21277-3 0  9996
2 28493  98.1182 116.3045 0004480   9.3280 350.8010 14.74347018970344
SAUDICOMSAT 7           
1 31119U 07012C   23010.08375823  .00000723  00000+0  14917-3 0  9993
2 31119  98.2110 319.2843 0059828 163.1014 197.2198 14.62334881838956
SAUDICOMSAT 6           
1 31121U 07012E   23009.66580239  .00000899  00000+0  19440-3 0  9997
2 31121  98.2499 314.1096 0074681 271.4059  87.8586 14.59101873837019
SAUDICOMSAT 5           
1 31124U 07012H   23010.11121668  .00000873  00000+0  17239-3 0  9995
2 31124  98.1804 320.7071 0052353 107.9888 252.7030 14.64078087839893
SAUDICOMSAT 3           
1 31125U 07012J   23009.56980845  .00001208  00000+0  22670-3 0  9991
2 31125  98.1464 321.4212 0043897  55.2958 305.2368 14.65939547840705
SAUDICOMSAT 4           
1 31127U 07012L   23010.09348028  .00000753  00000+0  15939-3 0  9998
2 31127  98.2332 317.7303 0066656 213.4784 146.2195 14.60841988838102
APRIZESAT 4             
1 35684U 09041D   23010.35216783  .00000993  00000+0  13676-3 0  9997
2 35684  98.3001  36.0053 0047561  48.9932 311.5377 14.79915380725710
APRIZESAT 3             
1 35686U 09041F   23009.52310187  .00001957  00000+0  20834-3 0  9994
2 35686  98.1010 105.7551 0070431 232.1195 127.3637 14.88384378729259
AISSAT 1                
1 36797U 10035C   23010.11878754  .00002265  00000+0  25482-3 0  9996
2 36797  98.2322 206.7874 0009943 213.0316 147.0279 14.87721608677290
S-NET D                 
1 43186U 18014G   23010.45785605  .00003776  00000+0  31735-3 0  9996
2 43186  97.6460 277.1708 0010146 325.1643  34.8915 14.98855754269917
S-NET B                 
1 43187U 18014H   23010.45832900  .00003810  00000+0  32015-3 0  9999
2 43187  97.6455 277.1122 0010096 325.1143  34.9418 14.98852425269912
S-NET A                 
1 43188U 18014J   23010.32510048  .00003757  00000+0  31582-3 0  9990
2 43188  97.6462 277.0576 0010106 325.6843  34.3726 14.98851901269898
S-NET C                 
1 43189U 18014K   23010.25954337  .00003785  00000+0  31819-3 0  9990
2 43189  97.6454 276.9024 0010008 325.8187  34.2391 14.98845905268433
SALSAT                  
1 46495U 20068K   23009.27253374  .00004999  00000+0  34953-3 0  9998
2 46495  97.7528 316.0152 0014928 302.9236  57.0554 15.05677221125140
